CCSDS_OMM_VERS = 2.0
CREATION_DATE  = 
ORIGINATOR     = 

OBJECT_NAME    = ATLAS CENTAUR R/B
OBJECT_ID      = 1972-065B
CENTER_NAME    = EARTH
REF_FRAME      = TEME
TIME_SYSTEM    = UTC
MEAN_ELEMENT_THEORY = SGP/SGP4

EPOCH          = 2025-11-24T00:10:36.571008
MEAN_MOTION    = 14.77338806
ECCENTRICITY   = .0034101
INCLINATION    = 35.0005
RA_OF_ASC_NODE = 204.9239
ARG_OF_PERICENTER = 202.5576
MEAN_ANOMALY   = 157.3625

EPHEMERIS_TYPE = 0
CLASSIFICATION_TYPE = U
NORAD_CAT_ID   = 6155
ELEMENT_SET_NO = 999
REV_AT_EPOCH   = 82562
BSTAR          = .19667E-3
MEAN_MOTION_DOT = .1411E-4
MEAN_MOTION_DDOT = 0

CCSDS_OMM_VERS = 2.0
CREATION_DATE  = 
ORIGINATOR     = 

OBJECT_NAME    = SL-8 R/B
OBJECT_ID      = 1975-112B
CENTER_NAME    = EARTH
REF_FRAME      = TEME
TIME_SYSTEM    = UTC
MEAN_ELEMENT_THEORY = SGP/SGP4

EPOCH          = 2025-11-24T09:30:58.927104
MEAN_MOTION    = 14.38128295
ECCENTRICITY   = .001616
INCLINATION    = 74.0604
RA_OF_ASC_NODE = 212.5961
ARG_OF_PERICENTER = 326.4969
MEAN_ANOMALY   = 33.5162

EPHEMERIS_TYPE = 0
CLASSIFICATION_TYPE = U
NORAD_CAT_ID   = 8459
ELEMENT_SET_NO = 999
REV_AT_EPOCH   = 61673
BSTAR          = .10631E-3
MEAN_MOTION_DOT = .297E-5
MEAN_MOTION_DDOT = 0

CCSDS_OMM_VERS = 2.0
CREATION_DATE  = 
ORIGINATOR     = 

OBJECT_NAME    = SL-3 R/B
OBJECT_ID      = 1977-057B
CENTER_NAME    = EARTH
REF_FRAME      = TEME
TIME_SYSTEM    = UTC
MEAN_ELEMENT_THEORY = SGP/SGP4

EPOCH          = 2025-11-24T11:07:42.446208
MEAN_MOTION    = 15.42342497
ECCENTRICITY   = .0006726
INCLINATION    = 97.5686
RA_OF_ASC_NODE = 131.0895
ARG_OF_PERICENTER = 309.8355
MEAN_ANOMALY   = 50.2299

EPHEMERIS_TYPE = 0
CLASSIFICATION_TYPE = U
NORAD_CAT_ID   = 10114
ELEMENT_SET_NO = 999
REV_AT_EPOCH   = 65209
BSTAR          = .30523E-3
MEAN_MOTION_DOT = .13085E-3
MEAN_MOTION_DDOT = 0

CCSDS_OMM_VERS = 2.0
CREATION_DATE  = 
ORIGINATOR     = 

OBJECT_NAME    = SEASAT 1
OBJECT_ID      = 1978-064A
CENTER_NAME    = EARTH
REF_FRAME      = TEME
TIME_SYSTEM    = UTC
MEAN_ELEMENT_THEORY = SGP/SGP4

EPOCH          = 2025-11-24T08:24:16.823808
MEAN_MOTION    = 14.46030437
ECCENTRICITY   = .0002066
INCLINATION    = 108.0087
RA_OF_ASC_NODE = 264.4571
ARG_OF_PERICENTER = 251.9306
MEAN_ANOMALY   = 108.1615

EPHEMERIS_TYPE = 0
CLASSIFICATION_TYPE = U
NORAD_CAT_ID   = 10967
ELEMENT_SET_NO = 999
REV_AT_EPOCH   = 49128
BSTAR          = .16597E-3
MEAN_MOTION_DOT = .455E-5
MEAN_MOTION_DDOT = 0

CCSDS_OMM_VERS = 2.0
CREATION_DATE  = 
ORIGINATOR     = 

OBJECT_NAME    = SL-14 R/B
OBJECT_ID      = 1979-011B
CENTER_NAME    = EARTH
REF_FRAME      = TEME
TIME_SYSTEM    = UTC
MEAN_ELEMENT_THEORY = SGP/SGP4

EPOCH          = 2025-11-24T03:22:34.739040
MEAN_MOTION    = 14.91737679
ECCENTRICITY   = .0017402
INCLINATION    = 82.5250
RA_OF_ASC_NODE = 196.6818
ARG_OF_PERICENTER = 53.2926
MEAN_ANOMALY   = 306.9889

EPHEMERIS_TYPE = 0
CLASSIFICATION_TYPE = U
NORAD_CAT_ID   = 11267
ELEMENT_SET_NO = 999
REV_AT_EPOCH   = 51304
BSTAR          = .64336E-4
MEAN_MOTION_DOT = .675E-5
MEAN_MOTION_DDOT = 0

CCSDS_OMM_VERS = 2.0
CREATION_DATE  = 
ORIGINATOR     = 

OBJECT_NAME    = SL-8 R/B
OBJECT_ID      = 1979-089B
CENTER_NAME    = EARTH
REF_FRAME      = TEME
TIME_SYSTEM    = UTC
MEAN_ELEMENT_THEORY = SGP/SGP4

EPOCH          = 2025-11-24T07:35:31.496064
MEAN_MOTION    = 14.42264572
ECCENTRICITY   = .0014659
INCLINATION    = 74.0683
RA_OF_ASC_NODE = 286.0766
ARG_OF_PERICENTER = 128.0191
MEAN_ANOMALY   = 232.2291

EPHEMERIS_TYPE = 0
CLASSIFICATION_TYPE = U
NORAD_CAT_ID   = 11574
ELEMENT_SET_NO = 999
REV_AT_EPOCH   = 42091
BSTAR          = .10929E-3
MEAN_MOTION_DOT = .335E-5
MEAN_MOTION_DDOT = 0

CCSDS_OMM_VERS = 2.0
CREATION_DATE  = 
ORIGINATOR     = 

OBJECT_NAME    = SL-14 R/B
OBJECT_ID      = 1980-005B
CENTER_NAME    = EARTH
REF_FRAME      = TEME
TIME_SYSTEM    = UTC
MEAN_ELEMENT_THEORY = SGP/SGP4

EPOCH          = 2025-11-24T06:51:31.355712
MEAN_MOTION    = 14.90757906
ECCENTRICITY   = .0016558
INCLINATION    = 82.5162
RA_OF_ASC_NODE = 47.1983
ARG_OF_PERICENTER = 150.3946
MEAN_ANOMALY   = 209.8214

EPHEMERIS_TYPE = 0
CLASSIFICATION_TYPE = U
NORAD_CAT_ID   = 11672
ELEMENT_SET_NO = 999
REV_AT_EPOCH   = 46078
BSTAR          = .74034E-4
MEAN_MOTION_DOT = .754E-5
MEAN_MOTION_DDOT = 0

CCSDS_OMM_VERS = 2.0
CREATION_DATE  = 
ORIGINATOR     = 

OBJECT_NAME    = SL-8 R/B
OBJECT_ID      = 1981-003B
CENTER_NAME    = EARTH
REF_FRAME      = TEME
TIME_SYSTEM    = UTC
MEAN_ELEMENT_THEORY = SGP/SGP4

EPOCH          = 2025-11-24T06:33:31.684032
MEAN_MOTION    = 15.06147677
ECCENTRICITY   = .0281868
INCLINATION    = 82.9310
RA_OF_ASC_NODE = 27.1894
ARG_OF_PERICENTER = 184.1144
MEAN_ANOMALY   = 175.7773

EPHEMERIS_TYPE = 0
CLASSIFICATION_TYPE = U
NORAD_CAT_ID   = 12139
ELEMENT_SET_NO = 999
REV_AT_EPOCH   = 29878
BSTAR          = .62565E-3
MEAN_MOTION_DOT = .23161E-3
MEAN_MOTION_DDOT = 0

CCSDS_OMM_VERS = 2.0
CREATION_DATE  = 
ORIGINATOR     = 

OBJECT_NAME    = SL-3 R/B
OBJECT_ID      = 1981-046B
CENTER_NAME    = EARTH
REF_FRAME      = TEME
TIME_SYSTEM    = UTC
MEAN_ELEMENT_THEORY = SGP/SGP4

EPOCH          = 2025-11-24T08:43:05.342592
MEAN_MOTION    = 15.39066666
ECCENTRICITY   = .0020169
INCLINATION    = 81.2341
RA_OF_ASC_NODE = 55.9096
ARG_OF_PERICENTER = 28.0880
MEAN_ANOMALY   = 332.1444

EPHEMERIS_TYPE = 0
CLASSIFICATION_TYPE = U
NORAD_CAT_ID   = 12465
ELEMENT_SET_NO = 999
REV_AT_EPOCH   = 42221
BSTAR          = .30453E-3
MEAN_MOTION_DOT = .11899E-3
MEAN_MOTION_DDOT = 0

CCSDS_OMM_VERS = 2.0
CREATION_DATE  = 
ORIGINATOR     = 

OBJECT_NAME    = SL-3 R/B
OBJECT_ID      = 1981-103B
CENTER_NAME    = EARTH
REF_FRAME      = TEME
TIME_SYSTEM    = UTC
MEAN_ELEMENT_THEORY = SGP/SGP4

EPOCH          = 2025-11-24T10:13:17.620032
MEAN_MOTION    = 15.19910360
ECCENTRICITY   = .0011516
INCLINATION    = 81.1592
RA_OF_ASC_NODE = 336.7990
ARG_OF_PERICENTER = 284.8145
MEAN_ANOMALY   = 75.1809

EPHEMERIS_TYPE = 0
CLASSIFICATION_TYPE = U
NORAD_CAT_ID   = 12904
ELEMENT_SET_NO = 999
REV_AT_EPOCH   = 95723
BSTAR          = .3369E-3
MEAN_MOTION_DOT = .7273E-4
MEAN_MOTION_DDOT = 0

CCSDS_OMM_VERS = 2.0
CREATION_DATE  = 
ORIGINATOR     = 

OBJECT_NAME    = SL-3 R/B
OBJECT_ID      = 1982-013B
CENTER_NAME    = EARTH
REF_FRAME      = TEME
TIME_SYSTEM    = UTC
MEAN_ELEMENT_THEORY = SGP/SGP4

EPOCH          = 2025-11-24T08:29:59.207136
MEAN_MOTION    = 15.20843954
ECCENTRICITY   = .0022961
INCLINATION    = 81.1744
RA_OF_ASC_NODE = 284.1263
ARG_OF_PERICENTER = 170.5585
MEAN_ANOMALY   = 189.6083

EPHEMERIS_TYPE = 0
CLASSIFICATION_TYPE = U
NORAD_CAT_ID   = 13068
ELEMENT_SET_NO = 999
REV_AT_EPOCH   = 38833
BSTAR          = .23745E-3
MEAN_MOTION_DOT = .5303E-4
MEAN_MOTION_DDOT = 0

CCSDS_OMM_VERS = 2.0
CREATION_DATE  = 
ORIGINATOR     = 

OBJECT_NAME    = SL-3 R/B
OBJECT_ID      = 1982-039B
CENTER_NAME    = EARTH
REF_FRAME      = TEME
TIME_SYSTEM    = UTC
MEAN_ELEMENT_THEORY = SGP/SGP4

EPOCH          = 2025-11-24T11:25:12.170784
MEAN_MOTION    = 15.09368740
ECCENTRICITY   = .0031173
INCLINATION    = 81.1754
RA_OF_ASC_NODE = 337.1030
ARG_OF_PERICENTER = 313.3495
MEAN_ANOMALY   = 46.5133

EPHEMERIS_TYPE = 0
CLASSIFICATION_TYPE = U
NORAD_CAT_ID   = 13154
ELEMENT_SET_NO = 999
REV_AT_EPOCH   = 36576
BSTAR          = .18637E-3
MEAN_MOTION_DOT = .3031E-4
MEAN_MOTION_DDOT = 0

