ATLAS CENTAUR R/B       
1 06155U 72065B   25328.00736773  .00001411  00000+0  19667-3 0  9998
2 06155  35.0005 204.9239 0034100 202.5576 157.3625 14.77338806825625
SL-8 R/B                
1 08459U 75112B   25328.39651536  .00000297  00000+0  10631-3 0  9991
2 08459  74.0604 212.5961 0016160 326.4969  33.5162 14.38128295616734
SL-3 R/B                
1 10114U 77057B   25328.46368572  .00013085  00000+0  30523-3 0  9996
2 10114  97.5686 131.0895 0006726 309.8355  50.2299 15.42342497652091
SEASAT 1                
1 10967U 78064A   25328.35019472  .00000455  00000+0  16597-3 0  9993
2 10967 108.0087 264.4571 0002066 251.9306 108.1615 14.46030437491286
SL-14 R/B               
1 11267U 79011B   25328.14067985  .00000675  00000+0  64336-4 0  9998
2 11267  82.5250 196.6818 0017402  53.2926 306.9889 14.91737679513041
SL-8 R/B                
1 11574U 79089B   25328.31633676  .00000335  00000+0  10929-3 0  9990
2 11574  74.0683 286.0766 0014659 128.0191 232.2291 14.42264572420914
SL-14 R/B               
1 11672U 80005B   25328.28577958  .00000754  00000+0  74034-4 0  9998
2 11672  82.5162  47.1983 0016558 150.3946 209.8214 14.90757906460787
SL-8 R/B                
1 12139U 81003B   25328.27328338  .00023161  00000+0  62565-3 0  9993
2 12139  82.9310  27.1894 0281868 184.1144 175.7773 15.06147677298783
SL-3 R/B                
1 12465U 81046B   25328.36325628  .00011899  00000+0  30453-3 0  9997
2 12465  81.2341  55.9096 0020169  28.0880 332.1444 15.39066666422217
SL-3 R/B                
1 12904U 81103B   25328.42589838  .00007273  00000+0  33690-3 0  9998
2 12904  81.1592 336.7990 0011516 284.8145  75.1809 15.19910360957238
SL-3 R/B                
1 13068U 82013B   25328.35415749  .00005303  00000+0  23745-3 0  9994
2 13068  81.1744 284.1263 0022961 170.5585 189.6083 15.20843954388333
SL-3 R/B                
1 13154U 82039B   25328.47583531  .00003031  00000+0  18637-3 0  9996
2 13154  81.1754 337.1030 0031173 313.3495  46.5133 15.09368740365764
